[{"OBJECT_NAME":"IRIDIUM 121","OBJECT_ID":"2017-039K","EPOCH":"2026-03-09T22:57:50.967360","MEAN_MOTION":14.34217682,"ECCENTRICITY":0.00021772,"INCLINATION":86.3973,"RA_OF_ASC_NODE":35.125,"ARG_OF_PERICENTER":87.8477,"MEAN_ANOMALY":272.2968,"EPHEMERIS_TYPE":0,"CLASSIFICATION_TYPE":"U","NORAD_CAT_ID":42812,"ELEMENT_SET_NO":999,"REV_AT_EPOCH":45560,"BSTAR":5.919812e-6,"MEAN_MOTION_DOT":3.6e-7,"MEAN_MOTION_DDOT":0},{"OBJECT_NAME":"DMSP 5D-2 F13 DEB","OBJECT_ID":"1995-015GH","EPOCH":"2026-03-08T22:02:13.113312","MEAN_MOTION":14.1913264,"ECCENTRICITY":0.00777826,"INCLINATION":98.7355,"RA_OF_ASC_NODE":315.8043,"ARG_OF_PERICENTER":133.9115,"MEAN_ANOMALY":226.8517,"EPHEMERIS_TYPE":0,"CLASSIFICATION_TYPE":"U","NORAD_CAT_ID":42267,"ELEMENT_SET_NO":999,"REV_AT_EPOCH":55665,"BSTAR":0.0030993174,"MEAN_MOTION_DOT":6.645e-5,"MEAN_MOTION_DDOT":0}]
